STARLINK-31117          
1 58776U 24011M   26068.14384878  .00000728  00000+0  36721-4 0  9995
2 58776  53.1623  16.4221 0001090  73.5689 286.5432 15.30189861120183
SCS-01 D                
1 63985U 25100D   26068.75607686  .00032471  00000+0  10528-2 0  9990
2 63985  97.3730 145.4097 0006346 266.2302  93.8214 15.31902149 45621
